SHIJIAN-23 (SJ-23)      
1 55131U 23002A   24180.68314112  .00000148  00000+0  00000+0 0  9994
2 55131   1.8625  87.6470 0001493   7.7561  99.8201  1.00082964  5480
USA 340                 
1 55138U 22144E   24165.00277604 -.00000170  00000+0  00000+0 0  9996
2 55138   3.7802  65.9673 0003287  71.9795 116.6035  0.99560504  4417
APSTAR-6E               
1 55239U 23005A   24179.85608460 -.00000308  00000+0  00000+0 0  9994
2 55239   0.0288  93.8522 0002755  20.6224 245.5492  1.00262945 11651
USA 342                 
1 55263U 23008A   24178.33660659  .00000144  00000+0  00000+0 0  9991
2 55263   0.0067 325.1735 0001334 314.0915 141.0247  1.00272094   178
LDPE-3A                 
1 55264U 23008B   24177.84910355 -.00000240  00000+0  00000+0 0  9996
2 55264   0.8072  88.2628 0000431 154.6473  49.0706  1.01378287  4583
ELEKTRO-L 4             
1 55506U 23016A   24179.77170970 -.00000055  00000+0  00000+0 0  9993
2 55506   0.0447 236.5334 0000702 347.8972 135.5587  1.00270102  5117
AMAZONAS NEXUS          
1 55508U 23017A   24173.02132749 -.00000262  00000+0  00000+0 0  9990
2 55508   0.0299 332.4638 0002326  73.5946 170.3225  1.00272392  4988
CHINASAT 26 (ZX 26)     
1 55686U 23023A   24179.41361735 -.00000351  00000+0  00000+0 0  9991
2 55686   0.0717  79.7638 0003781  15.8845  94.3326  1.00264467  5010
LUCH-5X (OLYMP-K 2)     
1 55841U 23031A   24180.73453134 -.00000018  00000+0  00000+0 0  9995
2 55841   0.0107 297.0822 0002430 235.4260   9.3859  1.00164615  4736
GAOFEN-13 02            
1 55912U 23036A   24180.61320267 -.00000228  00000+0  00000+0 0  9999
2 55912   1.9959 306.0092 0003193 306.6522  31.9918  1.00268727  4881
SES-18                  
1 55970U 23038A   24180.44172851 -.00000097  00000+0  00000+0 0  9994
2 55970   0.0334 268.3390 0000431 272.7609 151.8353  1.00271088  4894
SES-19                  
1 55971U 23038B   24180.56805347  .00000091  00000+0  00000+0 0  9994
2 55971   0.0116   9.6281 0001650  95.8890 241.2026  1.00270947  4870
INTELSAT 40E (IS-40E)   
1 56174U 23052A   24179.58527429 -.00000170  00000+0  00000+0 0  9997
2 56174   0.0155  60.1544 0001903  65.8401 269.8762  1.00271923  4608
VIASAT-3                
1 56370U 23060A   24179.00604840 -.00000181  00000+0  00000+0 0  9996
2 56370   0.0208 353.2679 0000385 347.7710 207.7714  1.00268713  4227
ARCTURUS                
1 56371U 23060B   24179.95639705 -.00000113  00000+0  00000+0 0  9994
2 56371   0.9134  88.6034 0000898  95.2762 154.9288  1.00269768  4242
GS-1                    
1 56372U 23060C   24175.46646524 -.00000209  00000+0  00000+0 0  9990
2 56372   0.8544  87.7252 0003402 282.6146 158.9596  1.00266248  4180
BEIDOU-3 G4             
1 56564U 23066A   24180.59181234 -.00000108  00000+0  00000+0 0  9999
2 56564   2.0944 288.2004 0005930 204.5710 157.3951  1.00269481  4193
ARABSAT-7B (BADR-8)     
1 56757U 23075A   24179.60859635  .00000148  00000+0  00000+0 0  9993
2 56757   0.0703  24.3719 0004002   3.6855 133.2345  1.00272925  3924
IRNSS-1J (NVS-01)       
1 56759U 23076A   24180.61093541 -.00000331  00000+0  00000+0 0  9990
2 56759   3.9688 265.9212 0004300   0.0545   0.6577  1.00266271  3919
NUSANTARA TIGA (SATRIA) 
1 57045U 23086A   24179.59563332 -.00000232  00000+0  00000+0 0  9995
2 57045   0.0263 357.4999 0002811 346.5316 292.5702  1.00268269  2542
H2SAT (HEINRICH HERTZ)  
1 57213U 23093A   24179.67508086  .00000004  00000+0  00000+0 0  9990
2 57213   0.0298  96.3298 0000917 122.8194 300.6257  1.00272972  3703
SYRACUSE 4B             
1 57214U 23093B   24180.01368933 -.00000051  00000+0  00000+0 0  9999
2 57214   0.0185  62.6454 0000298 127.5600  84.7595  1.00270293   734
JUPITER 3 (ECHOSTAR 24) 
1 57479U 23108A   24177.50309972 -.00000143  00000+0  00000+0 0  9999
2 57479   0.0220  16.6666 0001495  73.2529 270.0976  1.00270084  3417
GALAXY 37 (G-37)        
1 57493U 23112A   24180.59593712  .00000052  00000+0  00000+0 0  9998
2 57493   0.0116  23.2727 0002019  77.8115 263.6119  1.00271284  3334
LUDI TANCE-4 01A        
1 57624U 23120A   24179.04885503 -.00000172  00000+0  00000+0 0  9997
2 57624  15.7345 211.5001 0002498 226.5223 304.8254  1.00270956  3320
TJS-10                  
1 58204U 23169A   24180.76289837  .00000004  00000+0  00000+0 0  9997
2 58204   0.6797  88.6436 0001026 339.6110 296.6333  1.00268055  2479
CHINASAT 6E (ZX 6E)     
1 58253U 23172A   24179.69795480 -.00000358  00000+0  00000+0 0  9994
2 58253   0.0343 274.5503 0003267 181.6905 186.7652  1.00266367  2445
YAOGAN-41               
1 58582U 23197A   24180.60981308 -.00000358  00000+0  00000+0 0  9995
2 58582   4.5755 307.7394 0019018 179.2594 132.9287  1.00272837  2111
OVZON-3                 
1 58698U 24003A   24178.25556322  .00000056  00000+0  00000+0 0  9996
2 58698   0.0125  26.0756 0002641 175.7950 224.7083  1.00271981   206
INSAT-3DS               
1 58990U 24033A   24171.63670715 -.00000142  00000+0  00000+0 0  9999
2 58990   0.0159 349.8168 0010402 105.1251 125.6022  1.00268037   992
MERAH PUTIH 2           
1 58995U 24035A   24177.04962344 -.00000351  00000+0  00000+0 0  9991
2 58995   0.0127  59.0773 0001273  38.6204 306.8075  1.00270323  1340
TJS-11                  
1 59020U 24037A   24180.71748928 -.00000366  00000+0  00000+0 0  9997
2 59020   5.3085 321.3893 0005234 188.1339 146.3004  1.00272287  1407
HULIANWAN GAOGUI-01 (H*)
1 59069U 24040A   24180.03070535  .00000159  00000+0  00000+0 0  9990
2 59069   0.0437 106.1730 0002781 276.5588 298.6085  1.00270736   118
PAKSAT-MM1              
1 59915U 24104A   24180.54132536  .00000157  00000+0  00000+0 0  9995
2 59915   0.0424 160.9011 0000557 338.2238  11.0859  1.00273194   398
